start=new Date('2023-05-26T00:00:00.000Z').valueOf();
sats=[{"ELEMENT_SET_NO":"999","PERIOD":"95.592","COUNTRY_CODE":"US","OBJECT_NAME":"STARLINK-1629","RA_OF_ASC_NODE":"211.6520","TLE_LINE2":"2 46150  53.0525 211.6520 0001117  98.9317 261.1799 15.06405155153121","MEAN_ANOMALY":"261.1799","MEAN_MOTION_DOT":"0.00007680","MEAN_ELEMENT_THEORY":"SGP4","MEAN_MOTION_DDOT":"0.0000000000000","PERIAPSIS":"546.424","APOAPSIS":"547.971","REV_AT_EPOCH":"15312","SITE":"AFETR","ARG_OF_PERICENTER":"98.9317","GP_ID":"232485209","INCLINATION":"53.0525","CLASSIFICATION_TYPE":"U","NORAD_CAT_ID":"46150","CENTER_NAME":"EARTH","DECAY_DATE":null,"FILE":"3916799","SEMIMAJOR_AXIS":"6925.333","OBJECT_ID":"2020-057AK","RCS_SIZE":"LARGE","OBJECT_TYPE":"PAYLOAD","EPHEMERIS_TYPE":"0","REF_FRAME":"TEME","TLE_LINE1":"1 46150U 20057AK  23145.56394026  .00007680  00000-0  53384-3 0  9997","BSTAR":"0.00053384000000","TIME_SYSTEM":"UTC","ECCENTRICITY":"0.00011170","MEAN_MOTION":"15.06405155","LAUNCH_DATE":"2020-08-18","EPOCH":"2023-05-25T13:32:04.438464"},{"MEAN_MOTION":"15.06386475","ECCENTRICITY":"0.00012410","TIME_SYSTEM":"UTC","BSTAR":"0.00017035000000","TLE_LINE1":"1 46151U 20057AL  23144.34574170  .00002256  00000-0  17035-3 0  9990","EPHEMERIS_TYPE":"0","REF_FRAME":"TEME","EPOCH":"2023-05-24T08:17:52.082880","LAUNCH_DATE":"2020-08-18","OBJECT_ID":"2020-057AL","SEMIMAJOR_AXIS":"6925.390","FILE":"3916549","DECAY_DATE":null,"CENTER_NAME":"EARTH","NORAD_CAT_ID":"46151","OBJECT_TYPE":"PAYLOAD","RCS_SIZE":"LARGE","ARG_OF_PERICENTER":"96.6518","REV_AT_EPOCH":"15255","SITE":"AFETR","CLASSIFICATION_TYPE":"U","INCLINATION":"53.0520","GP_ID":"232445921","TLE_LINE2":"2 46151  53.0520 197.1206 0001241  96.6518 263.4612 15.06386475152550","MEAN_ANOMALY":"263.4612","RA_OF_ASC_NODE":"197.1206","COUNTRY_CODE":"US","OBJECT_NAME":"STARLINK-1631","PERIOD":"95.593","ELEMENT_SET_NO":"999","APOAPSIS":"548.114","PERIAPSIS":"546.396","MEAN_MOTION_DDOT":"0.0000000000000","MEAN_ELEMENT_THEORY":"SGP4","MEAN_MOTION_DOT":"0.00002256"},{"SITE":"AFETR","REV_AT_EPOCH":"15312","ARG_OF_PERICENTER":"86.6625","CLASSIFICATION_TYPE":"U","INCLINATION":"53.0526","GP_ID":"232485240","RA_OF_ASC_NODE":"211.5329","OBJECT_NAME":"STARLINK-1634","COUNTRY_CODE":"US","TLE_LINE2":"2 46152  53.0526 211.5329 0000825  86.6625 273.4458 15.06412845153123","MEAN_ANOMALY":"273.4458","ELEMENT_SET_NO":"999","PERIOD":"95.591","APOAPSIS":"547.746","MEAN_ELEMENT_THEORY":"SGP4","MEAN_MOTION_DOT":"0.00017704","PERIAPSIS":"546.603","MEAN_MOTION_DDOT":"0.0000000000000","TIME_SYSTEM":"UTC","BSTAR":"0.00120400000000","TLE_LINE1":"1 46152U 20057AM  23145.58880327  .00017704  00000-0  12040-2 0  9996","ECCENTRICITY":"0.00008250","MEAN_MOTION":"15.06412845","REF_FRAME":"TEME","EPHEMERIS_TYPE":"0","EPOCH":"2023-05-25T14:07:52.602528","LAUNCH_DATE":"2020-08-18","SEMIMAJOR_AXIS":"6925.309","OBJECT_ID":"2020-057AM","CENTER_NAME":"EARTH","DECAY_DATE":null,"NORAD_CAT_ID":"46152","FILE":"3916800","OBJECT_TYPE":"PAYLOAD","RCS_SIZE":"LARGE"},{"LAUNCH_DATE":"2020-08-18","EPOCH":"2023-05-24T08:44:24.338112","REF_FRAME":"TEME","EPHEMERIS_TYPE":"0","TIME_SYSTEM":"UTC","BSTAR":"0.00027850000000","TLE_LINE1":"1 46153U 20057AN  23144.36417058  .00003868  00000-0  27850-3 0  9991","ECCENTRICITY":"0.00010030","MEAN_MOTION":"15.06387624","RCS_SIZE":"LARGE","OBJECT_TYPE":"PAYLOAD","DECAY_DATE":null,"CENTER_NAME":"EARTH","NORAD_CAT_ID":"46153","FILE":"3916549","SEMIMAJOR_AXIS":"6925.386","OBJECT_ID":"2020-057AN","GP_ID":"232446918","CLASSIFICATION_TYPE":"U","INCLINATION":"53.0520","REV_AT_EPOCH":"15255","SITE":"AFETR","ARG_OF_PERICENTER":"90.4040","MEAN_ELEMENT_THEORY":"SGP4","MEAN_MOTION_DOT":"0.00003868","PERIAPSIS":"546.557","MEAN_MOTION_DDOT":"0.0000000000000","APOAPSIS":"547.946","ELEMENT_SET_NO":"999","PERIOD":"95.593","RA_OF_ASC_NODE":"197.0392","COUNTRY_CODE":"US","OBJECT_NAME":"STARLINK-1636","TLE_LINE2":"2 46153  53.0520 197.0392 0001003  90.4040 269.7064 15.06387624152552","MEAN_ANOMALY":"269.7064"},{"ELEMENT_SET_NO":"999","PERIOD":"95.592","RA_OF_ASC_NODE":"201.6313","OBJECT_NAME":"STARLINK-1642","COUNTRY_CODE":"US","TLE_LINE2":"2 46154  53.0534 201.6313 0001109 104.7938 255.3174 15.06405415153255","MEAN_ANOMALY":"255.3174","MEAN_ELEMENT_THEORY":"SGP4","MEAN_MOTION_DOT":"0.00005496","PERIAPSIS":"546.429","MEAN_MOTION_DDOT":"0.0000000000000","APOAPSIS":"547.965","REV_AT_EPOCH":"15325","SITE":"AFETR","ARG_OF_PERICENTER":"104.7938","GP_ID":"232485632","CLASSIFICATION_TYPE":"U","INCLINATION":"53.0534","DECAY_DATE":null,"CENTER_NAME":"EARTH","NORAD_CAT_ID":"46154","FILE":"3916801","SEMIMAJOR_AXIS":"6925.332","OBJECT_ID":"2020-057AP","RCS_SIZE":"LARGE","OBJECT_TYPE":"PAYLOAD","EPHEMERIS_TYPE":"0","REF_FRAME":"TEME","TIME_SYSTEM":"UTC","TLE_LINE1":"1 46154U 20057AP  23145.56855267  .00005496  00000-0  38749-3 0  9991","BSTAR":"0.00038749000000","ECCENTRICITY":"0.00011090","MEAN_MOTION":"15.06405415","LAUNCH_DATE":"2020-08-18","EPOCH":"2023-05-25T13:38:42.950688"},{"REV_AT_EPOCH":"15351","SITE":"AFETR","ARG_OF_PERICENTER":"93.5574","INCLINATION":"53.0527","CLASSIFICATION_TYPE":"U","GP_ID":"232416654","COUNTRY_CODE":"US","OBJECT_NAME":"STARLINK-1667","RA_OF_ASC_NODE":"176.5810","MEAN_ANOMALY":"266.5539","TLE_LINE2":"2 46155  53.0527 176.5810 0001089  93.5574 266.5539 15.06385965153513","ELEMENT_SET_NO":"999","PERIOD":"95.593","APOAPSIS":"548.011","MEAN_MOTION_DOT":"0.00001493","MEAN_ELEMENT_THEORY":"SGP4","MEAN_MOTION_DDOT":"0.0000000000000","PERIAPSIS":"546.502","BSTAR":"0.00011915000000","TLE_LINE1":"1 46155U 20057AQ  23144.46553465  .00001493  00000-0  11915-3 0  9994","TIME_SYSTEM":"UTC","ECCENTRICITY":"0.00010890","MEAN_MOTION":"15.06385965","EPHEMERIS_TYPE":"0","REF_FRAME":"TEME","EPOCH":"2023-05-24T11:10:22.193760","LAUNCH_DATE":"2020-08-18","OBJECT_ID":"2020-057AQ","SEMIMAJOR_AXIS":"6925.392","NORAD_CAT_ID":"46155","DECAY_DATE":null,"CENTER_NAME":"EARTH","FILE":"3916099","OBJECT_TYPE":"PAYLOAD","RCS_SIZE":"LARGE"},{"ECCENTRICITY":"0.00011830","MEAN_MOTION":"15.06379438","TIME_SYSTEM":"UTC","TLE_LINE1":"1 46156U 20057AR  23144.32362118 -.00001626  00000-0 -90381-4 0  9998","BSTAR":"-0.00009038100000","REF_FRAME":"TEME","EPHEMERIS_TYPE":"0","EPOCH":"2023-05-24T07:46:00.869952","LAUNCH_DATE":"2020-08-18","OBJECT_ID":"2020-057AR","SEMIMAJOR_AXIS":"6925.412","FILE":"3916549","CENTER_NAME":"EARTH","DECAY_DATE":null,"NORAD_CAT_ID":"46156","OBJECT_TYPE":"PAYLOAD","RCS_SIZE":"LARGE","ARG_OF_PERICENTER":"94.6274","REV_AT_EPOCH":"15380","SITE":"AFETR","CLASSIFICATION_TYPE":"U","INCLINATION":"53.0542","GP_ID":"232447168","MEAN_ANOMALY":"265.4850","TLE_LINE2":"2 46156  53.0542 197.2198 0001183  94.6274 265.4850 15.06379438153808","RA_OF_ASC_NODE":"197.2198","COUNTRY_CODE":"US","OBJECT_NAME":"STARLINK-1545","PERIOD":"95.593","ELEMENT_SET_NO":"999","APOAPSIS":"548.096","PERIAPSIS":"546.457","MEAN_MOTION_DDOT":"0.0000000000000","MEAN_ELEMENT_THEORY":"SGP4","MEAN_MOTION_DOT":"-0.00001626"},{"EPOCH":"2023-05-24T09:02:58.845408","LAUNCH_DATE":"2020-08-18","TIME_SYSTEM":"UTC","TLE_LINE1":"1 46157U 20057AS  23144.37706997  .00002034  00000-0  15542-3 0  9998","BSTAR":"0.00015542000000","MEAN_MOTION":"15.06386900","ECCENTRICITY":"0.00011800","EPHEMERIS_TYPE":"0","REF_FRAME":"TEME","OBJECT_TYPE":"PAYLOAD","RCS_SIZE":"LARGE","OBJECT_ID":"2020-057AS","SEMIMAJOR_AXIS":"6925.389","DECAY_DATE":null,"CENTER_NAME":"EARTH","NORAD_CAT_ID":"46157","FILE":"3916549","CLASSIFICATION_TYPE":"U","INCLINATION":"53.0529","GP_ID":"232447419","REV_AT_EPOCH":"15284","SITE":"AFETR","ARG_OF_PERICENTER":"94.6398","APOAPSIS":"548.071","MEAN_ELEMENT_THEORY":"SGP4","MEAN_MOTION_DOT":"0.00002034","PERIAPSIS":"546.437","MEAN_MOTION_DDOT":"0.0000000000000","RA_OF_ASC_NODE":"176.9777","OBJECT_NAME":"STARLINK-1587","COUNTRY_CODE":"US","TLE_LINE2":"2 46157  53.0529 176.9777 0001180  94.6398 265.4726 15.06386900152842","MEAN_ANOMALY":"265.4726","ELEMENT_SET_NO":"999","PERIOD":"95.593"},{"INCLINATION":"53.0520","CLASSIFICATION_TYPE":"U","GP_ID":"232445674","SITE":"AFETR","REV_AT_EPOCH":"15410","ARG_OF_PERICENTER":"75.1669","APOAPSIS":"547.961","MEAN_MOTION_DOT":"0.00002484","MEAN_ELEMENT_THEORY":"SGP4","MEAN_MOTION_DDOT":"0.0000000000000","PERIAPSIS":"546.533","OBJECT_NAME":"STARLINK-1589","COUNTRY_CODE":"US","RA_OF_ASC_NODE":"176.9977","MEAN_ANOMALY":"284.9435","TLE_LINE2":"2 46158  53.0520 176.9977 0001031  75.1669 284.9435 15.06389235154104","ELEMENT_SET_NO":"999","PERIOD":"95.593","EPOCH":"2023-05-24T08:57:40.398336","LAUNCH_DATE":"2020-08-18","BSTAR":"0.00018563000000","TLE_LINE1":"1 46158U 20057AT  23144.37338424  .00002484  00000-0  18563-3 0  9990","TIME_SYSTEM":"UTC","ECCENTRICITY":"0.00010310","MEAN_MOTION":"15.06389235","EPHEMERIS_TYPE":"0","REF_FRAME":"TEME","OBJECT_TYPE":"PAYLOAD","RCS_SIZE":"LARGE","SEMIMAJOR_AXIS":"6925.382","OBJECT_ID":"2020-057AT","NORAD_CAT_ID":"46158","CENTER_NAME":"EARTH","DECAY_DATE":null,"FILE":"3916549"},{"REV_AT_EPOCH":"15372","SITE":"AFETR","ARG_OF_PERICENTER":"82.6406","CLASSIFICATION_TYPE":"U","INCLINATION":"53.0538","GP_ID":"232512612","RA_OF_ASC_NODE":"211.4532","COUNTRY_CODE":"US","OBJECT_NAME":"STARLINK-1595","MEAN_ANOMALY":"277.4713","TLE_LINE2":"2 46159  53.0538 211.4532 0001145  82.6406 277.4713 15.06378010153726","ELEMENT_SET_NO":"999","PERIOD":"95.594","APOAPSIS":"548.074","MEAN_ELEMENT_THEORY":"SGP4","MEAN_MOTION_DOT":"0.00013389","PERIAPSIS":"546.488","MEAN_MOTION_DDOT":"0.0000000000000","TIME_SYSTEM":"UTC","TLE_LINE1":"1 46159U 20057AU  23145.60816916  .00013389  00000-0  91658-3 0  9997","BSTAR":"0.00091658000000","MEAN_MOTION":"15.06378010","ECCENTRICITY":"0.00011450","EPHEMERIS_TYPE":"0","REF_FRAME":"TEME","EPOCH":"2023-05-25T14:35:45.815424","LAUNCH_DATE":"2020-08-18","OBJECT_ID":"2020-057AU","SEMIMAJOR_AXIS":"6925.416","DECAY_DATE":null,"CENTER_NAME":"EARTH","NORAD_CAT_ID":"46159","FILE":"3917122","OBJECT_TYPE":"PAYLOAD","RCS_SIZE":"LARGE"}];
